{"fetched_at":"2026-07-06T08:46:43.220Z","source":"https://celestrak.org/NORAD/elements/gp.php?GROUP=spire&FORMAT=JSON","constellation":"spire","records":[{"OBJECT_NAME":"LEMUR-2 FIKRETDENGIZ","OBJECT_ID":"2026-004A","EPOCH":"2026-07-05T10:05:20.482080","CLASSIFICATION_TYPE":"U","MEAN_MOTION":14.88470342,"ECCENTRICITY":0.0010595,"INCLINATION":97.8025,"RA_OF_ASC_NODE":184.6996,"ARG_OF_PERICENTER":82.8816,"MEAN_ANOMALY":277.3605,"EPHEMERIS_TYPE":0,"NORAD_CAT_ID":67363,"ELEMENT_SET_NO":999,"REV_AT_EPOCH":2599,"BSTAR":0.00073669,"MEAN_MOTION_DOT":0.00006796,"MEAN_MOTION_DDOT":0},{"OBJECT_NAME":"TWILIGHT-1 OBJECT B","OBJECT_ID":"2026-004B","EPOCH":"2026-07-05T10:52:06.499200","CLASSIFICATION_TYPE":"U","MEAN_MOTION":14.87771894,"ECCENTRICITY":0.0010191,"INCLINATION":97.8067,"RA_OF_ASC_NODE":184.738,"ARG_OF_PERICENTER":73.6401,"MEAN_ANOMALY":286.5936,"EPHEMERIS_TYPE":0,"NORAD_CAT_ID":67364,"ELEMENT_SET_NO":999,"REV_AT_EPOCH":2600,"BSTAR":0.00030662,"MEAN_MOTION_DOT":0.00002746,"MEAN_MOTION_DDOT":0},{"OBJECT_NAME":"LEMUR-2-MARIO-SOUSA","OBJECT_ID":"2026-004C","EPOCH":"2026-07-05T09:38:18.182976","CLASSIFICATION_TYPE":"U","MEAN_MOTION":14.88673083,"ECCENTRICITY":0.0010183,"INCLINATION":97.7995,"RA_OF_ASC_NODE":184.6763,"ARG_OF_PERICENTER":84.1684,"MEAN_ANOMALY":276.0694,"EPHEMERIS_TYPE":0,"NORAD_CAT_ID":67365,"ELEMENT_SET_NO":999,"REV_AT_EPOCH":2600,"BSTAR":0.00081018,"MEAN_MOTION_DOT":0.00007517,"MEAN_MOTION_DDOT":0},{"OBJECT_NAME":"LEMUR-2-SONNENBLUME","OBJECT_ID":"2026-004E","EPOCH":"2026-07-05T11:16:43.018176","CLASSIFICATION_TYPE":"U","MEAN_MOTION":14.88418945,"ECCENTRICITY":0.0009724,"INCLINATION":97.799,"RA_OF_ASC_NODE":184.7207,"ARG_OF_PERICENTER":85.1458,"MEAN_ANOMALY":275.0869,"EPHEMERIS_TYPE":0,"NORAD_CAT_ID":67367,"ELEMENT_SET_NO":999,"REV_AT_EPOCH":2601,"BSTAR":0.00046555,"MEAN_MOTION_DOT":0.00004267,"MEAN_MOTION_DDOT":0},{"OBJECT_NAME":"LEMUR-2-WOBLER","OBJECT_ID":"2026-004F","EPOCH":"2026-07-04T23:45:59.645088","CLASSIFICATION_TYPE":"U","MEAN_MOTION":14.8864722,"ECCENTRICITY":0.000992,"INCLINATION":97.804,"RA_OF_ASC_NODE":184.3888,"ARG_OF_PERICENTER":77.6792,"MEAN_ANOMALY":282.5535,"EPHEMERIS_TYPE":0,"NORAD_CAT_ID":67368,"ELEMENT_SET_NO":999,"REV_AT_EPOCH":2594,"BSTAR":0.00062762,"MEAN_MOTION_DOT":0.00005805,"MEAN_MOTION_DDOT":0},{"OBJECT_NAME":"LEMUR-2-GRAM-E-SUE","OBJECT_ID":"2026-004H","EPOCH":"2026-07-05T10:51:15.022944","CLASSIFICATION_TYPE":"U","MEAN_MOTION":14.88560747,"ECCENTRICITY":0.0008849,"INCLINATION":97.7978,"RA_OF_ASC_NODE":184.7198,"ARG_OF_PERICENTER":87.279,"MEAN_ANOMALY":272.9439,"EPHEMERIS_TYPE":0,"NORAD_CAT_ID":67370,"ELEMENT_SET_NO":999,"REV_AT_EPOCH":2601,"BSTAR":0.00040192,"MEAN_MOTION_DOT":0.00003688,"MEAN_MOTION_DDOT":0},{"OBJECT_NAME":"LEMUR-2-KATIE","OBJECT_ID":"2026-004AA","EPOCH":"2026-07-04T22:47:56.400576","CLASSIFICATION_TYPE":"U","MEAN_MOTION":14.90186442,"ECCENTRICITY":0.0004342,"INCLINATION":97.8042,"RA_OF_ASC_NODE":184.7424,"ARG_OF_PERICENTER":57.3934,"MEAN_ANOMALY":302.7702,"EPHEMERIS_TYPE":0,"NORAD_CAT_ID":67387,"ELEMENT_SET_NO":999,"REV_AT_EPOCH":2595,"BSTAR":0.00089935,"MEAN_MOTION_DOT":0.00008665,"MEAN_MOTION_DDOT":0},{"OBJECT_NAME":"LEMUR-2-HCS-BAZUS","OBJECT_ID":"2026-004AB","EPOCH":"2026-07-04T22:45:47.839104","CLASSIFICATION_TYPE":"U","MEAN_MOTION":14.90225147,"ECCENTRICITY":0.0003734,"INCLINATION":97.8028,"RA_OF_ASC_NODE":184.7206,"ARG_OF_PERICENTER":55.9351,"MEAN_ANOMALY":304.2221,"EPHEMERIS_TYPE":0,"NORAD_CAT_ID":67388,"ELEMENT_SET_NO":999,"REV_AT_EPOCH":2595,"BSTAR":0.00044478,"MEAN_MOTION_DOT":0.00004259,"MEAN_MOTION_DDOT":0}]}
